{
  "type": "FeatureCollection",
  "features": [
    {
      "type": "Feature",
      "properties": {
        "norad_id": 64751,
        "name": "PROGRESS-MS 31",
        "group": "stations",
        "lat": -41.008671973114645,
        "lon": 108.58807234198589,
        "alt_km": 421.7755380635308,
        "timestamp": "2025-12-10T18:56:58.849143+00:00",
        "meta_object_name": "PROGRESS-MS 31",
        "meta_object_id": "2025-146A",
        "meta_epoch": "2025-12-10T03:42:55.481184",
        "meta_mean_motion": 15.49465664,
        "meta_eccentricity": 0.0003395,
        "meta_inclination": 51.6306,
        "meta_ra_of_asc_node": 155.2782,
        "meta_arg_of_pericenter": 228.7876,
        "meta_mean_anomaly": 131.282,
        "meta_ephemeris_type": 0,
        "meta_classification_type": "U",
        "meta_norad_cat_id": 64751,
        "meta_element_set_no": 999,
        "meta_rev_at_epoch": 675,
        "meta_bstar": 0.00027248017,
        "meta_mean_motion_dot": 0.00014837,
        "meta_mean_motion_ddot": 0,
        "tle_line1": "1 64751U 25146A   25344.15480881  .00014837  00000+0  27248-3 0  9992",
        "tle_line2": "2 64751  51.6306 155.2782 0003395 228.7876 131.2820 15.49465664  6751"
      },
      "geometry": {
        "type": "Point",
        "coordinates": [
          108.58807234198589,
          -41.008671973114645
        ]
      }
    },
    {
      "type": "Feature",
      "properties": {
        "norad_id": 64786,
        "name": "TIANZHOU-9",
        "group": "stations",
        "lat": -12.645498227330043,
        "lon": 13.826883460392311,
        "alt_km": 386.5194318103895,
        "timestamp": "2025-12-10T18:56:58.849156+00:00",
        "meta_object_name": "TIANZHOU-9",
        "meta_object_id": "2025-149A",
        "meta_epoch": "2025-12-10T06:43:57.761760",
        "meta_mean_motion": 15.59014677,
        "meta_eccentricity": 0.00088021,
        "meta_inclination": 41.4682,
        "meta_ra_of_asc_node": 31.6356,
        "meta_arg_of_pericenter": 10.5172,
        "meta_mean_anomaly": 349.5849,
        "meta_ephemeris_type": 0,
        "meta_classification_type": "U",
        "meta_norad_cat_id": 64786,
        "meta_element_set_no": 999,
        "meta_rev_at_epoch": 25530,
        "meta_bstar": 0.00043406543,
        "meta_mean_motion_dot": 0.00034646,
        "meta_mean_motion_ddot": 0,
        "tle_line1": "1 64786U 25149A   25344.28052965  .00034646  00000+0  43407-3 0  9990",
        "tle_line2": "2 64786  41.4682  31.6356 0008802  10.5172 349.5849 15.59014677255308"
      },
      "geometry": {
        "type": "Point",
        "coordinates": [
          13.826883460392311,
          -12.645498227330043
        ]
      }
    },
    {
      "type": "Feature",
      "properties": {
        "norad_id": 65077,
        "name": "CREW DRAGON 11",
        "group": "stations",
        "lat": -41.00867113002969,
        "lon": 108.58807395903312,
        "alt_km": 421.7755380844292,
        "timestamp": "2025-12-10T18:56:58.849166+00:00",
        "meta_object_name": "CREW DRAGON 11",
        "meta_object_id": "2025-166A",
        "meta_epoch": "2025-12-10T03:42:55.481184",
        "meta_mean_motion": 15.49465664,
        "meta_eccentricity": 0.0003395,
        "meta_inclination": 51.6306,
        "meta_ra_of_asc_node": 155.2782,
        "meta_arg_of_pericenter": 228.7876,
        "meta_mean_anomaly": 131.282,
        "meta_ephemeris_type": 0,
        "meta_classification_type": "U",
        "meta_norad_cat_id": 65077,
        "meta_element_set_no": 999,
        "meta_rev_at_epoch": 214,
        "meta_bstar": 0.00027248017,
        "meta_mean_motion_dot": 0.00014837,
        "meta_mean_motion_ddot": 0,
        "tle_line1": "1 65077U 25166A   25344.15480881  .00014837  00000+0  27248-3 0  9996",
        "tle_line2": "2 65077  51.6306 155.2782 0003395 228.7876 131.2820 15.49465664  2142"
      },
      "geometry": {
        "type": "Point",
        "coordinates": [
          108.58807395903312,
          -41.00867113002969
        ]
      }
    },
    {
      "type": "Feature",
      "properties": {
        "norad_id": 65304,
        "name": "DRAGON CRS-33",
        "group": "stations",
        "lat": -41.008670763470484,
        "lon": 108.58807466209812,
        "alt_km": 421.77553809351593,
        "timestamp": "2025-12-10T18:56:58.849176+00:00",
        "meta_object_name": "DRAGON CRS-33",
        "meta_object_id": "2025-186A",
        "meta_epoch": "2025-12-10T03:42:55.481184",
        "meta_mean_motion": 15.49465664,
        "meta_eccentricity": 0.0003395,
        "meta_inclination": 51.6306,
        "meta_ra_of_asc_node": 155.2782,
        "meta_arg_of_pericenter": 228.7876,
        "meta_mean_anomaly": 131.282,
        "meta_ephemeris_type": 0,
        "meta_classification_type": "U",
        "meta_norad_cat_id": 65304,
        "meta_element_set_no": 999,
        "meta_rev_at_epoch": 11,
        "meta_bstar": 0.00027248017,
        "meta_mean_motion_dot": 0.00014837,
        "meta_mean_motion_ddot": 0,
        "tle_line1": "1 65304U 25186A   25344.15480881  .00014837  00000+0  27248-3 0  9991",
        "tle_line2": "2 65304  51.6306 155.2782 0003395 228.7876 131.2820 15.49465664   110"
      },
      "geometry": {
        "type": "Point",
        "coordinates": [
          108.58807466209812,
          -41.008670763470484
        ]
      }
    },
    {
      "type": "Feature",
      "properties": {
        "norad_id": 65586,
        "name": "PROGRESS-MS 32",
        "group": "stations",
        "lat": -41.008670433567325,
        "lon": 108.58807529485637,
        "alt_km": 421.7755381016932,
        "timestamp": "2025-12-10T18:56:58.849185+00:00",
        "meta_object_name": "PROGRESS-MS 32",
        "meta_object_id": "2025-204A",
        "meta_epoch": "2025-12-10T03:42:55.481184",
        "meta_mean_motion": 15.49465664,
        "meta_eccentricity": 0.0003395,
        "meta_inclination": 51.6306,
        "meta_ra_of_asc_node": 155.2782,
        "meta_arg_of_pericenter": 228.7876,
        "meta_mean_anomaly": 131.282,
        "meta_ephemeris_type": 0,
        "meta_classification_type": "U",
        "meta_norad_cat_id": 65586,
        "meta_element_set_no": 999,
        "meta_rev_at_epoch": 27,
        "meta_bstar": 0.00027248017,
        "meta_mean_motion_dot": 0.00014837,
        "meta_mean_motion_ddot": 0,
        "tle_line1": "1 65586U 25204A   25344.15480881  .00014837  00000+0  27248-3 0  9994",
        "tle_line2": "2 65586  51.6306 155.2782 0003395 228.7876 131.2820 15.49465664   279"
      },
      "geometry": {
        "type": "Point",
        "coordinates": [
          108.58807529485637,
          -41.008670433567325
        ]
      }
    },
    {
      "type": "Feature",
      "properties": {
        "norad_id": 65616,
        "name": "CYGNUS NG-23",
        "group": "stations",
        "lat": -41.00867006700816,
        "lon": 108.58807599792128,
        "alt_km": 421.7755381107809,
        "timestamp": "2025-12-10T18:56:58.849195+00:00",
        "meta_object_name": "CYGNUS NG-23",
        "meta_object_id": "2025-208A",
        "meta_epoch": "2025-12-10T03:42:55.481184",
        "meta_mean_motion": 15.49465664,
        "meta_eccentricity": 0.0003395,
        "meta_inclination": 51.6306,
        "meta_ra_of_asc_node": 155.2782,
        "meta_arg_of_pericenter": 228.7876,
        "meta_mean_anomaly": 131.282,
        "meta_ephemeris_type": 0,
        "meta_classification_type": "U",
        "meta_norad_cat_id": 65616,
        "meta_element_set_no": 999,
        "meta_rev_at_epoch": 22,
        "meta_bstar": 0.00027248017,
        "meta_mean_motion_dot": 0.00014837,
        "meta_mean_motion_ddot": 0,
        "tle_line1": "1 65616U 25208A   25344.15480881  .00014837  00000+0  27248-3 0  9992",
        "tle_line2": "2 65616  51.6306 155.2782 0003395 228.7876 131.2820 15.49465664   228"
      },
      "geometry": {
        "type": "Point",
        "coordinates": [
          108.58807599792128,
          -41.00867006700816
        ]
      }
    },
    {
      "type": "Feature",
      "properties": {
        "norad_id": 65729,
        "name": "DRAGONFLY",
        "group": "stations",
        "lat": 38.840970433659564,
        "lon": -73.90527630554186,
        "alt_km": 353.9536201067631,
        "timestamp": "2025-12-10T18:56:58.849208+00:00",
        "meta_object_name": "DRAGONFLY",
        "meta_object_id": "1998-067XH",
        "meta_epoch": "2025-12-10T10:46:42.048192",
        "meta_mean_motion": 15.70885293,
        "meta_eccentricity": 0.0006568,
        "meta_inclination": 51.625,
        "meta_ra_of_asc_node": 147.4857,
        "meta_arg_of_pericenter": 262.4746,
        "meta_mean_anomaly": 97.5505,
        "meta_ephemeris_type": 0,
        "meta_classification_type": "U",
        "meta_norad_cat_id": 65729,
        "meta_element_set_no": 999,
        "meta_rev_at_epoch": 1280,
        "meta_bstar": 0.0016627,
        "meta_mean_motion_dot": 0.00217091,
        "meta_mean_motion_ddot": 0,
        "tle_line1": "1 65729U 98067XH  25344.44909778  .00217091  00000+0  16627-2 0  9998",
        "tle_line2": "2 65729  51.6250 147.4857 0006568 262.4746  97.5505 15.70885293 12802"
      },
      "geometry": {
        "type": "Point",
        "coordinates": [
          -73.90527630554186,
          38.840970433659564
        ]
      }
    }
  ]
}